[{"OBJECT_NAME":"SL-8 R/B","OBJECT_ID":"1979-089B","EPOCH":"2026-03-28T08:00:36.940896","MEAN_MOTION":14.42361887,"ECCENTRICITY":0.00167823,"INCLINATION":74.0685,"RA_OF_ASC_NODE":56.5276,"ARG_OF_PERICENTER":226.8708,"MEAN_ANOMALY":133.1046,"EPHEMERIS_TYPE":0,"CLASSIFICATION_TYPE":"U","NORAD_CAT_ID":11574,"ELEMENT_SET_NO":999,"REV_AT_EPOCH":43879,"BSTAR":0.00011245979,"MEAN_MOTION_DOT":3.46e-6,"MEAN_MOTION_DDOT":0},{"OBJECT_NAME":"SL-14 R/B","OBJECT_ID":"1980-005B","EPOCH":"2026-03-28T14:04:39.425952","MEAN_MOTION":14.90951222,"ECCENTRICITY":0.00172287,"INCLINATION":82.5113,"RA_OF_ASC_NODE":289.3069,"ARG_OF_PERICENTER":99.6074,"MEAN_ANOMALY":260.7093,"EPHEMERIS_TYPE":0,"CLASSIFICATION_TYPE":"U","NORAD_CAT_ID":11672,"ELEMENT_SET_NO":999,"REV_AT_EPOCH":47930,"BSTAR":5.8438195e-5,"MEAN_MOTION_DOT":6.04e-6,"MEAN_MOTION_DDOT":0},{"OBJECT_NAME":"SL-8 R/B","OBJECT_ID":"1981-003B","EPOCH":"2026-03-28T12:56:28.686624","MEAN_MOTION":15.1179462,"ECCENTRICITY":0.02609279,"INCLINATION":82.9333,"RA_OF_ASC_NODE":272.5822,"ARG_OF_PERICENTER":113.0656,"MEAN_ANOMALY":249.8316,"EPHEMERIS_TYPE":0,"CLASSIFICATION_TYPE":"U","NORAD_CAT_ID":12139,"ELEMENT_SET_NO":999,"REV_AT_EPOCH":31752,"BSTAR":0.00064441346,"MEAN_MOTION_DOT":0.00025724,"MEAN_MOTION_DDOT":0},{"OBJECT_NAME":"SL-3 R/B","OBJECT_ID":"1981-046B","EPOCH":"2026-03-28T12:50:52.953504","MEAN_MOTION":15.42447536,"ECCENTRICITY":0.00182508,"INCLINATION":81.2284,"RA_OF_ASC_NODE":267.1024,"ARG_OF_PERICENTER":315.5457,"MEAN_ANOMALY":44.432,"EPHEMERIS_TYPE":0,"CLASSIFICATION_TYPE":"U","NORAD_CAT_ID":12465,"ELEMENT_SET_NO":999,"REV_AT_EPOCH":44133,"BSTAR":0.00030863648,"MEAN_MOTION_DOT":0.00013467,"MEAN_MOTION_DDOT":0},{"OBJECT_NAME":"SL-3 R/B","OBJECT_ID":"1981-103B","EPOCH":"2026-03-28T13:56:59.735616","MEAN_MOTION":15.21594564,"ECCENTRICITY":0.00127141,"INCLINATION":81.1605,"RA_OF_ASC_NODE":191.2712,"ARG_OF_PERICENTER":218.6858,"MEAN_ANOMALY":141.3464,"EPHEMERIS_TYPE":0,"CLASSIFICATION_TYPE":"U","NORAD_CAT_ID":12904,"ELEMENT_SET_NO":999,"REV_AT_EPOCH":97610,"BSTAR":0.00026718422,"MEAN_MOTION_DOT":6.065e-5,"MEAN_MOTION_DDOT":0},{"OBJECT_NAME":"SL-3 R/B","OBJECT_ID":"1982-013B","EPOCH":"2026-03-28T13:57:41.171328","MEAN_MOTION":15.22182216,"ECCENTRICITY":0.00234914,"INCLINATION":81.174,"RA_OF_ASC_NODE":138.6269,"ARG_OF_PERICENTER":115.4333,"MEAN_ANOMALY":244.9334,"EPHEMERIS_TYPE":0,"CLASSIFICATION_TYPE":"U","NORAD_CAT_ID":13068,"ELEMENT_SET_NO":999,"REV_AT_EPOCH":40722,"BSTAR":0.00016133364,"MEAN_MOTION_DOT":3.756e-5,"MEAN_MOTION_DDOT":0},{"OBJECT_NAME":"SL-3 R/B","OBJECT_ID":"1982-039B","EPOCH":"2026-03-28T12:58:44.745888","MEAN_MOTION":15.10183677,"ECCENTRICITY":0.0028631,"INCLINATION":81.1567,"RA_OF_ASC_NODE":194.2258,"ARG_OF_PERICENTER":262.0967,"MEAN_ANOMALY":97.7008,"EPHEMERIS_TYPE":0,"CLASSIFICATION_TYPE":"U","NORAD_CAT_ID":13154,"ELEMENT_SET_NO":999,"REV_AT_EPOCH":38448,"BSTAR":0.00017334962,"MEAN_MOTION_DOT":2.88e-5,"MEAN_MOTION_DDOT":0},{"OBJECT_NAME":"SL-3 R/B","OBJECT_ID":"1982-079B","EPOCH":"2026-03-28T13:33:08.961120","MEAN_MOTION":15.25048561,"ECCENTRICITY":0.00255065,"INCLINATION":81.1485,"RA_OF_ASC_NODE":170.791,"ARG_OF_PERICENTER":102.7172,"MEAN_ANOMALY":257.6915,"EPHEMERIS_TYPE":0,"CLASSIFICATION_TYPE":"U","NORAD_CAT_ID":13403,"ELEMENT_SET_NO":999,"REV_AT_EPOCH":38057,"BSTAR":0.00026512002,"MEAN_MOTION_DOT":6.712e-5,"MEAN_MOTION_DDOT":0},{"OBJECT_NAME":"SL-14 R/B","OBJECT_ID":"1982-092B","EPOCH":"2026-03-28T13:48:05.706720","MEAN_MOTION":14.8668297,"ECCENTRICITY":0.00190317,"INCLINATION":82.5659,"RA_OF_ASC_NODE":123.7325,"ARG_OF_PERICENTER":236.0331,"MEAN_ANOMALY":284.4121,"EPHEMERIS_TYPE":0,"CLASSIFICATION_TYPE":"U","NORAD_CAT_ID":13553,"ELEMENT_SET_NO":999,"REV_AT_EPOCH":33173,"BSTAR":4.6068414e-5,"MEAN_MOTION_DOT":4.35e-6,"MEAN_MOTION_DDOT":0},{"OBJECT_NAME":"SL-3 R/B","OBJECT_ID":"1983-010B","EPOCH":"2026-03-28T14:05:37.420224","MEAN_MOTION":15.46983791,"ECCENTRICITY":0.00160177,"INCLINATION":81.1057,"RA_OF_ASC_NODE":339.0699,"ARG_OF_PERICENTER":346.6549,"MEAN_ANOMALY":13.427,"EPHEMERIS_TYPE":0,"CLASSIFICATION_TYPE":"U","NORAD_CAT_ID":13819,"ELEMENT_SET_NO":999,"REV_AT_EPOCH":36086,"BSTAR":0.00033977592,"MEAN_MOTION_DOT":0.0001727,"MEAN_MOTION_DDOT":0},{"OBJECT_NAME":"SL-3 R/B","OBJECT_ID":"1983-075B","EPOCH":"2026-03-28T13:07:55.609824","MEAN_MOTION":15.38853093,"ECCENTRICITY":0.00222015,"INCLINATION":97.614,"RA_OF_ASC_NODE":92.8448,"ARG_OF_PERICENTER":157.4351,"MEAN_ANOMALY":202.7876,"EPHEMERIS_TYPE":0,"CLASSIFICATION_TYPE":"U","NORAD_CAT_ID":14208,"ELEMENT_SET_NO":999,"REV_AT_EPOCH":33305,"BSTAR":0.00033793927,"MEAN_MOTION_DOT":0.00013015,"MEAN_MOTION_DDOT":0},{"OBJECT_NAME":"COSMOS 1536","OBJECT_ID":"1984-013A","EPOCH":"2026-03-28T11:58:32.370528","MEAN_MOTION":15.24073479,"ECCENTRICITY":0.0013264,"INCLINATION":82.5414,"RA_OF_ASC_NODE":89.1443,"ARG_OF_PERICENTER":209.043,"MEAN_ANOMALY":151.0071,"EPHEMERIS_TYPE":0,"CLASSIFICATION_TYPE":"U","NORAD_CAT_ID":14699,"ELEMENT_SET_NO":999,"REV_AT_EPOCH":27548,"BSTAR":0.00030735603,"MEAN_MOTION_DOT":7.509e-5,"MEAN_MOTION_DDOT":0},{"OBJECT_NAME":"SL-14 R/B","OBJECT_ID":"1984-027B","EPOCH":"2026-03-28T11:31:26.325120","MEAN_MOTION":14.85995917,"ECCENTRICITY":0.00164698,"INCLINATION":82.5416,"RA_OF_ASC_NODE":227.3877,"ARG_OF_PERICENTER":271.3673,"MEAN_ANOMALY":88.5657,"EPHEMERIS_TYPE":0,"CLASSIFICATION_TYPE":"U","NORAD_CAT_ID":14820,"ELEMENT_SET_NO":999,"REV_AT_EPOCH":25042,"BSTAR":6.4593357e-5,"MEAN_MOTION_DOT":5.89e-6,"MEAN_MOTION_DDOT":0},{"OBJECT_NAME":"SL-8 R/B","OBJECT_ID":"1985-006B","EPOCH":"2026-03-28T15:26:39.087744","MEAN_MOTION":14.37796602,"ECCENTRICITY":0.0017682,"INCLINATION":74.0452,"RA_OF_ASC_NODE":226.2691,"ARG_OF_PERICENTER":138.6366,"MEAN_ANOMALY":232.8734,"EPHEMERIS_TYPE":0,"CLASSIFICATION_TYPE":"U","NORAD_CAT_ID":15483,"ELEMENT_SET_NO":999,"REV_AT_EPOCH":15675,"BSTAR":0.00011245815,"MEAN_MOTION_DOT":3.13e-6,"MEAN_MOTION_DDOT":0},{"OBJECT_NAME":"SL-12 R/B(2)","OBJECT_ID":"1985-042D","EPOCH":"2026-03-28T15:19:51.727296","MEAN_MOTION":14.21987729,"ECCENTRICITY":0.00328404,"INCLINATION":71.1086,"RA_OF_ASC_NODE":47.6917,"ARG_OF_PERICENTER":96.7379,"MEAN_ANOMALY":75.1663,"EPHEMERIS_TYPE":0,"CLASSIFICATION_TYPE":"U","NORAD_CAT_ID":15772,"ELEMENT_SET_NO":999,"REV_AT_EPOCH":11708,"BSTAR":3.9280611e-5,"MEAN_MOTION_DOT":4.0e-7,"MEAN_MOTION_DDOT":0},{"OBJECT_NAME":"SL-14 R/B","OBJECT_ID":"1985-069B","EPOCH":"2026-03-28T06:10:29.149248","MEAN_MOTION":14.86453014,"ECCENTRICITY":0.0019994,"INCLINATION":82.5305,"RA_OF_ASC_NODE":7.4783,"ARG_OF_PERICENTER":127.8899,"MEAN_ANOMALY":232.413,"EPHEMERIS_TYPE":0,"CLASSIFICATION_TYPE":"U","NORAD_CAT_ID":15945,"ELEMENT_SET_NO":999,"REV_AT_EPOCH":17559,"BSTAR":5.8117e-5,"MEAN_MOTION_DOT":5.4e-6,"MEAN_MOTION_DDOT":0},{"OBJECT_NAME":"SL-16 R/B","OBJECT_ID":"1985-097B","EPOCH":"2026-03-28T11:56:01.726080","MEAN_MOTION":14.16603578,"ECCENTRICITY":0.00094616,"INCLINATION":71.0008,"RA_OF_ASC_NODE":100.957,"ARG_OF_PERICENTER":237.8513,"MEAN_ANOMALY":234.8751,"EPHEMERIS_TYPE":0,"CLASSIFICATION_TYPE":"U","NORAD_CAT_ID":16182,"ELEMENT_SET_NO":999,"REV_AT_EPOCH":8989,"BSTAR":-3.916543e-6,"MEAN_MOTION_DOT":-5.6e-7,"MEAN_MOTION_DDOT":0}]
